HYLAS 4                 
1 43272U 18033B   26073.06263601 -.00000234  00000+0  00000+0 0  9993
2 43272   0.0195 109.9894 0001295 278.2626 132.4031  1.00274037 29116
IRNSS-1I                
1 43286U 18035A   26074.07961204  .00000101  00000+0  00000+0 0  9998
2 43286  28.9541  75.6486 0018953 189.5913 351.1666  1.00272429 29132
USA 283                 
1 43339U 18036A   26072.17892068  .00000000  00000+0  00000+0 0  9996
2 43339   0.0199 142.9115 0001223 275.2554 311.1688  1.00268062 24328
COSMOS 2526             
1 43432U 18037A   26072.02502765 -.00000344  00000+0  00000+0 0  9999
2 43432   0.0080 164.2767 0000492 244.9317 258.5172  1.00274475 28992
APSTAR-6C               
1 43450U 18041A   26071.59827637 -.00000318  00000+0  00000+0 0  9994
2 43450   0.0629 306.7775 0002650  46.2952 166.5150  1.00269636 28840
BANGABANDHUSAT-1        
1 43463U 18044A   26074.01995032 -.00000363  00000+0  00000+0 0  9996
2 43463   0.0211 117.3217 0002481 250.3623 291.2151  1.00272661 28763
SES-12                  
1 43488U 18049A   26073.37342400 -.00000270  00000+0  00000+0 0  9998
2 43488   0.0192  63.5919 0001860 239.6464  98.1739  1.00271135 28460
FENGYUN 2H              
1 43491U 18050A   26074.15463089 -.00000127  00000+0  00000+0 0  9999
2 43491   2.7866  80.2164 0001302 170.7083  56.6014  1.00272494 28499
BEIDOU-2 IGSO-7         
1 43539U 18057A   26073.66231619 -.00000149  00000+0  00000+0 0  9990
2 43539  55.1859 163.8862 0100658 236.7866 122.7872  1.00280609 28185
TELSTAR 19V             
1 43562U 18059A   26073.07646742 -.00000280  00000+0  00000+0 0  9996
2 43562   0.0197 170.7800 0001001 268.0214  57.4139  1.00271403 28194
TELKOM 4 (MERAH PUTIH)  
1 43587U 18064A   26074.08902395 -.00000345  00000+0  00000+0 0  9992
2 43587   0.0203 177.5053 0002104 225.2406 269.9992  1.00272231 27935
TELSTAR 18V             
1 43611U 18069A   26073.45324433 -.00000294  00000+0  00000+0 0  9999
2 43611   0.0181 239.1072 0002117 117.3545 116.7669  1.00272233 27687
AZERSPACE 2 (IS-38)     
1 43632U 18074A   26071.29767126  .00000138  00000+0  00000+0 0  9994
2 43632   0.0162 167.1748 0002142 185.4789 329.5515  1.00266327 27471
HORIZONS-3E             
1 43633U 18074B   26072.32266904 -.00000031  00000+0  00000+0 0  9991
2 43633   0.0019 309.6363 0000602  51.3128  95.1397  1.00272801 27384
AEHF-4 (USA 288)        
1 43651U 18079A   26074.26816470 -.00000274  00000+0  00000+0 0  9999
2 43651   1.4223 355.5678 0063968 359.0490 207.2530  1.00269386 27355
BEIDOU-3 G1             
1 43683U 18085A   26072.31265080 -.00000279  00000+0  00000+0 0  9995
2 43683   2.8312 100.0786 0002095   8.4898 314.8220  1.00265903 27091
GSAT-29                 
1 43698U 18089A   26074.20391924  .00000083  00000+0  00000+0 0  9994
2 43698   0.0316 260.3351 0001558  95.2965 305.6757  1.00275774 26843
